[{"OBJECT_NAME":"HIBARI","OBJECT_ID":"2021-102F","EPOCH":"2026-03-09T16:55:51.090816","MEAN_MOTION":15.29554512,"ECCENTRICITY":0.00120742,"INCLINATION":97.3381,"RA_OF_ASC_NODE":115.826,"ARG_OF_PERICENTER":186.5211,"MEAN_ANOMALY":173.5875,"EPHEMERIS_TYPE":0,"CLASSIFICATION_TYPE":"U","NORAD_CAT_ID":49400,"ELEMENT_SET_NO":999,"REV_AT_EPOCH":23897,"BSTAR":0.00042758039,"MEAN_MOTION_DOT":0.00012206,"MEAN_MOTION_DDOT":0},{"OBJECT_NAME":"STARLINK-32029","OBJECT_ID":"2024-120L","EPOCH":"2026-03-09T22:34:27.482304","MEAN_MOTION":15.30177261,"ECCENTRICITY":0.00017183,"INCLINATION":53.1623,"RA_OF_ASC_NODE":318.8249,"ARG_OF_PERICENTER":85.7689,"MEAN_ANOMALY":274.3508,"EPHEMERIS_TYPE":0,"CLASSIFICATION_TYPE":"U","NORAD_CAT_ID":60145,"ELEMENT_SET_NO":999,"REV_AT_EPOCH":9641,"BSTAR":3.2760497e-5,"MEAN_MOTION_DOT":6.1e-6,"MEAN_MOTION_DDOT":0}]
